[{"OBJECT_NAME":"STARLINK-35653","OBJECT_ID":"2025-237J","EPOCH":"2026-03-09T21:53:09.425760","MEAN_MOTION":15.30204154,"ECCENTRICITY":0.00012084,"INCLINATION":53.1613,"RA_OF_ASC_NODE":38.6603,"ARG_OF_PERICENTER":77.8994,"MEAN_ANOMALY":282.2143,"EPHEMERIS_TYPE":0,"CLASSIFICATION_TYPE":"U","NORAD_CAT_ID":66122,"ELEMENT_SET_NO":999,"REV_AT_EPOCH":2264,"BSTAR":0.0013920206,"MEAN_MOTION_DOT":0.00041102,"MEAN_MOTION_DDOT":0},{"OBJECT_NAME":"CZ-6A DEB","OBJECT_ID":"2024-140AAN","EPOCH":"2026-03-09T15:08:07.195776","MEAN_MOTION":15.20547394,"ECCENTRICITY":0.0064261,"INCLINATION":89.3669,"RA_OF_ASC_NODE":306.3092,"ARG_OF_PERICENTER":93.6352,"MEAN_ANOMALY":267.2246,"EPHEMERIS_TYPE":0,"CLASSIFICATION_TYPE":"U","NORAD_CAT_ID":61480,"ELEMENT_SET_NO":999,"REV_AT_EPOCH":8198,"BSTAR":0.0033609,"MEAN_MOTION_DOT":0.00078405,"MEAN_MOTION_DDOT":0}]
